CCSDS_OMM_VERS = 2.0
CREATION_DATE  = 
ORIGINATOR     = 

OBJECT_NAME    = STARLINK-36435
OBJECT_ID      = 2026-016H
CENTER_NAME    = EARTH
REF_FRAME      = TEME
TIME_SYSTEM    = UTC
MEAN_ELEMENT_THEORY = SGP/SGP4

EPOCH          = 2026-02-19T01:45:23.689440
MEAN_MOTION    = 15.80893029
ECCENTRICITY   = .0001782
INCLINATION    = 97.2829
RA_OF_ASC_NODE = 109.6521
ARG_OF_PERICENTER = 82.9345
MEAN_ANOMALY   = 277.2126

EPHEMERIS_TYPE = 0
CLASSIFICATION_TYPE = U
NORAD_CAT_ID   = 67568
ELEMENT_SET_NO = 999
REV_AT_EPOCH   = 387
BSTAR          = .14682E-2
MEAN_MOTION_DOT = .291714E-2
MEAN_MOTION_DDOT = 0

CCSDS_OMM_VERS = 2.0
CREATION_DATE  = 
ORIGINATOR     = 

OBJECT_NAME    = STARLINK-36575
OBJECT_ID      = 2026-016J
CENTER_NAME    = EARTH
REF_FRAME      = TEME
TIME_SYSTEM    = UTC
MEAN_ELEMENT_THEORY = SGP/SGP4

EPOCH          = 2026-02-19T03:14:48.204960
MEAN_MOTION    = 15.80906407
ECCENTRICITY   = .0001845
INCLINATION    = 97.2829
RA_OF_ASC_NODE = 109.7243
ARG_OF_PERICENTER = 113.9680
MEAN_ANOMALY   = 246.1781

EPHEMERIS_TYPE = 0
CLASSIFICATION_TYPE = U
NORAD_CAT_ID   = 67569
ELEMENT_SET_NO = 999
REV_AT_EPOCH   = 388
BSTAR          = .11472E-2
MEAN_MOTION_DOT = .22634E-2
MEAN_MOTION_DDOT = 0

CCSDS_OMM_VERS = 2.0
CREATION_DATE  = 
ORIGINATOR     = 

OBJECT_NAME    = STARLINK-36562
OBJECT_ID      = 2026-016K
CENTER_NAME    = EARTH
REF_FRAME      = TEME
TIME_SYSTEM    = UTC
MEAN_ELEMENT_THEORY = SGP/SGP4

EPOCH          = 2026-02-19T03:13:29.102304
MEAN_MOTION    = 15.81013528
ECCENTRICITY   = .0001832
INCLINATION    = 97.2822
RA_OF_ASC_NODE = 109.7253
ARG_OF_PERICENTER = 133.5478
MEAN_ANOMALY   = 226.5942

EPHEMERIS_TYPE = 0
CLASSIFICATION_TYPE = U
NORAD_CAT_ID   = 67570
ELEMENT_SET_NO = 999
REV_AT_EPOCH   = 388
BSTAR          = .20012E-2
MEAN_MOTION_DOT = .405163E-2
MEAN_MOTION_DDOT = 0

CCSDS_OMM_VERS = 2.0
CREATION_DATE  = 
ORIGINATOR     = 

OBJECT_NAME    = STARLINK-36578
OBJECT_ID      = 2026-016L
CENTER_NAME    = EARTH
REF_FRAME      = TEME
TIME_SYSTEM    = UTC
MEAN_ELEMENT_THEORY = SGP/SGP4

EPOCH          = 2026-02-19T02:30:40.026816
MEAN_MOTION    = 15.75325582
ECCENTRICITY   = .0001671
INCLINATION    = 97.2826
RA_OF_ASC_NODE = 109.6102
ARG_OF_PERICENTER = 140.5528
MEAN_ANOMALY   = 219.5860

EPHEMERIS_TYPE = 0
CLASSIFICATION_TYPE = U
NORAD_CAT_ID   = 67571
ELEMENT_SET_NO = 999
REV_AT_EPOCH   = 387
BSTAR          = .21884E-2
MEAN_MOTION_DOT = .341691E-2
MEAN_MOTION_DDOT = 0

CCSDS_OMM_VERS = 2.0
CREATION_DATE  = 
ORIGINATOR     = 

OBJECT_NAME    = STARLINK-36350
OBJECT_ID      = 2026-016M
CENTER_NAME    = EARTH
REF_FRAME      = TEME
TIME_SYSTEM    = UTC
MEAN_ELEMENT_THEORY = SGP/SGP4

EPOCH          = 2026-02-19T02:19:28.996032
MEAN_MOTION    = 15.75273506
ECCENTRICITY   = .0001402
INCLINATION    = 97.2837
RA_OF_ASC_NODE = 109.6196
ARG_OF_PERICENTER = 80.6700
MEAN_ANOMALY   = 279.4724

EPHEMERIS_TYPE = 0
CLASSIFICATION_TYPE = U
NORAD_CAT_ID   = 67572
ELEMENT_SET_NO = 999
REV_AT_EPOCH   = 387
BSTAR          = .12547E-2
MEAN_MOTION_DOT = .191979E-2
MEAN_MOTION_DDOT = 0

CCSDS_OMM_VERS = 2.0
CREATION_DATE  = 
ORIGINATOR     = 

OBJECT_NAME    = STARLINK-36588
OBJECT_ID      = 2026-016N
CENTER_NAME    = EARTH
REF_FRAME      = TEME
TIME_SYSTEM    = UTC
MEAN_ELEMENT_THEORY = SGP/SGP4

EPOCH          = 2026-02-19T02:22:31.993824
MEAN_MOTION    = 15.75250908
ECCENTRICITY   = .0001483
INCLINATION    = 97.2834
RA_OF_ASC_NODE = 109.6177
ARG_OF_PERICENTER = 137.7902
MEAN_ANOMALY   = 222.3478

EPHEMERIS_TYPE = 0
CLASSIFICATION_TYPE = U
NORAD_CAT_ID   = 67573
ELEMENT_SET_NO = 999
REV_AT_EPOCH   = 387
BSTAR          = .11239E-2
MEAN_MOTION_DOT = .171366E-2
MEAN_MOTION_DDOT = 0

CCSDS_OMM_VERS = 2.0
CREATION_DATE  = 
ORIGINATOR     = 

OBJECT_NAME    = STARLINK-36594
OBJECT_ID      = 2026-016P
CENTER_NAME    = EARTH
REF_FRAME      = TEME
TIME_SYSTEM    = UTC
MEAN_ELEMENT_THEORY = SGP/SGP4

EPOCH          = 2026-02-19T03:06:41.786784
MEAN_MOTION    = 15.80970017
ECCENTRICITY   = .0002289
INCLINATION    = 97.2822
RA_OF_ASC_NODE = 109.7293
ARG_OF_PERICENTER = 128.5692
MEAN_ANOMALY   = 231.5781

EPHEMERIS_TYPE = 0
CLASSIFICATION_TYPE = U
NORAD_CAT_ID   = 67574
ELEMENT_SET_NO = 999
REV_AT_EPOCH   = 388
BSTAR          = .12343E-2
MEAN_MOTION_DOT = .24476E-2
MEAN_MOTION_DDOT = 0

CCSDS_OMM_VERS = 2.0
CREATION_DATE  = 
ORIGINATOR     = 

OBJECT_NAME    = STARLINK-36400
OBJECT_ID      = 2026-016Q
CENTER_NAME    = EARTH
REF_FRAME      = TEME
TIME_SYSTEM    = UTC
MEAN_ELEMENT_THEORY = SGP/SGP4

EPOCH          = 2026-02-19T03:28:36.304032
MEAN_MOTION    = 15.75248830
ECCENTRICITY   = .0001655
INCLINATION    = 97.2838
RA_OF_ASC_NODE = 109.7089
ARG_OF_PERICENTER = 39.5283
MEAN_ANOMALY   = 320.6103

EPHEMERIS_TYPE = 0
CLASSIFICATION_TYPE = U
NORAD_CAT_ID   = 67575
ELEMENT_SET_NO = 999
REV_AT_EPOCH   = 388
BSTAR          = .11711E-2
MEAN_MOTION_DOT = .1787E-2
MEAN_MOTION_DDOT = 0

CCSDS_OMM_VERS = 2.0
CREATION_DATE  = 
ORIGINATOR     = 

OBJECT_NAME    = STARLINK-36591
OBJECT_ID      = 2026-016R
CENTER_NAME    = EARTH
REF_FRAME      = TEME
TIME_SYSTEM    = UTC
MEAN_ELEMENT_THEORY = SGP/SGP4

EPOCH          = 2026-02-19T04:00:01.999584
MEAN_MOTION    = 15.75218194
ECCENTRICITY   = .0001156
INCLINATION    = 97.2844
RA_OF_ASC_NODE = 109.7622
ARG_OF_PERICENTER = 81.2782
MEAN_ANOMALY   = 110.5088

EPHEMERIS_TYPE = 0
CLASSIFICATION_TYPE = U
NORAD_CAT_ID   = 67576
ELEMENT_SET_NO = 999
REV_AT_EPOCH   = 507
BSTAR          = -.51477E-3
MEAN_MOTION_DOT = -.7632E-3
MEAN_MOTION_DDOT = 0

CCSDS_OMM_VERS = 2.0
CREATION_DATE  = 
ORIGINATOR     = 

OBJECT_NAME    = STARLINK-36590
OBJECT_ID      = 2026-016S
CENTER_NAME    = EARTH
REF_FRAME      = TEME
TIME_SYSTEM    = UTC
MEAN_ELEMENT_THEORY = SGP/SGP4

EPOCH          = 2026-02-19T02:02:42.785952
MEAN_MOTION    = 15.75276592
ECCENTRICITY   = .0001398
INCLINATION    = 97.2841
RA_OF_ASC_NODE = 109.6360
ARG_OF_PERICENTER = 86.9153
MEAN_ANOMALY   = 273.2272

EPHEMERIS_TYPE = 0
CLASSIFICATION_TYPE = U
NORAD_CAT_ID   = 67577
ELEMENT_SET_NO = 999
REV_AT_EPOCH   = 387
BSTAR          = .12402E-2
MEAN_MOTION_DOT = .189738E-2
MEAN_MOTION_DDOT = 0

CCSDS_OMM_VERS = 2.0
CREATION_DATE  = 
ORIGINATOR     = 

OBJECT_NAME    = STARLINK-36613
OBJECT_ID      = 2026-016T
CENTER_NAME    = EARTH
REF_FRAME      = TEME
TIME_SYSTEM    = UTC
MEAN_ELEMENT_THEORY = SGP/SGP4

EPOCH          = 2026-02-19T01:29:36.114720
MEAN_MOTION    = 15.80983413
ECCENTRICITY   = .0002138
INCLINATION    = 97.2820
RA_OF_ASC_NODE = 109.6675
ARG_OF_PERICENTER = 108.1412
MEAN_ANOMALY   = 252.0089

EPHEMERIS_TYPE = 0
CLASSIFICATION_TYPE = U
NORAD_CAT_ID   = 67578
ELEMENT_SET_NO = 999
REV_AT_EPOCH   = 387
BSTAR          = .18013E-2
MEAN_MOTION_DOT = .362369E-2
MEAN_MOTION_DDOT = 0

CCSDS_OMM_VERS = 2.0
CREATION_DATE  = 
ORIGINATOR     = 

OBJECT_NAME    = STARLINK-36571
OBJECT_ID      = 2026-016U
CENTER_NAME    = EARTH
REF_FRAME      = TEME
TIME_SYSTEM    = UTC
MEAN_ELEMENT_THEORY = SGP/SGP4

EPOCH          = 2026-02-18T07:50:33.249408
MEAN_MOTION    = 15.75291173
ECCENTRICITY   = .00014607
INCLINATION    = 97.2833
RA_OF_ASC_NODE = 108.8317
ARG_OF_PERICENTER = 101.4728
MEAN_ANOMALY   = 258.6702

EPHEMERIS_TYPE = 0
CLASSIFICATION_TYPE = U
NORAD_CAT_ID   = 67579
ELEMENT_SET_NO = 999
REV_AT_EPOCH   = 375
BSTAR          = .17518648E-2
MEAN_MOTION_DOT = .270812E-2
MEAN_MOTION_DDOT = 0

