STARLINK-36435          
1 67568U 26016H   26050.07319085  .00291714  00000+0  14682-2 0  9999
2 67568  97.2829 109.6521 0001782  82.9345 277.2126 15.80893029  3874
STARLINK-36575          
1 67569U 26016J   26050.13528015  .00226340  00000+0  11472-2 0  9999
2 67569  97.2829 109.7243 0001845 113.9680 246.1781 15.80906407  3882
STARLINK-36562          
1 67570U 26016K   26050.13436461  .00405163  00000+0  20012-2 0  9996
2 67570  97.2822 109.7253 0001832 133.5478 226.5942 15.81013528  3882
STARLINK-36578          
1 67571U 26016L   26050.10462994  .00341691  00000+0  21884-2 0  9997
2 67571  97.2826 109.6102 0001671 140.5528 219.5860 15.75325582  3873
STARLINK-36350          
1 67572U 26016M   26050.09686338  .00191979  00000+0  12547-2 0  9994
2 67572  97.2837 109.6196 0001402  80.6700 279.4724 15.75273506  3879
STARLINK-36588          
1 67573U 26016N   26050.09898141  .00171366  00000+0  11239-2 0  9997
2 67573  97.2834 109.6177 0001483 137.7902 222.3478 15.75250908  3877
STARLINK-36594          
1 67574U 26016P   26050.12965031  .00244760  00000+0  12343-2 0  9991
2 67574  97.2822 109.7293 0002289 128.5692 231.5781 15.80970017  3880
STARLINK-36400          
1 67575U 26016Q   26050.14486463  .00178700  00000+0  11711-2 0  9999
2 67575  97.2838 109.7089 0001655  39.5283 320.6103 15.75248830  3887
STARLINK-36591          
1 67576U 26016R   26050.16668981 -.00076320  00000+0 -51477-3 0  9990
2 67576  97.2844 109.7622 0001156  81.2782 110.5088 15.75218194  5073
STARLINK-36590          
1 67577U 26016S   26050.08521743  .00189738  00000+0  12402-2 0  9996
2 67577  97.2841 109.6360 0001398  86.9153 273.2272 15.75276592  3875
STARLINK-36613          
1 67578U 26016T   26050.06222355  .00362369  00000+0  18013-2 0  9999
2 67578  97.2820 109.6675 0002138 108.1412 252.0089 15.80983413  3874
STARLINK-36571          
1 67579U 26016U   26049.32677372  .00270812  00000+0  17519-2 0  9991
2 67579  97.2833 108.8317 0001460 101.4728 258.6702 15.75291173  3756
